NORAD_CAT_ID,OBJECT_NAME,OBJECT_TYPE,EPOCH,MEAN_MOTION,ECCENTRICITY,INCLINATION,RA_OF_ASC_NODE,ARG_OF_PERICENTER,MEAN_ANOMALY,BSTAR,MEAN_MOTION_DOT,MEAN_MOTION_DDOT,TLE_LINE0,TLE_LINE1,TLE_LINE2,SEMIMAJOR_AXIS,PERIOD,APOGEE,PERIGEE,DECAYED
56785.0,STARLINK-5931,PAYLOAD,2023-09-28 16:00:30,15.25819017,0.0003299,69.9991,76.9867,272.5275,2.2817,-0.039495,-0.00938102,0.0,0 STARLINK-5931,1 56785U 23078U   23271.66702546 -.00938102  00000-0 -39495-1 0  9998,2 56785  69.9991  76.9867 0003299 272.5275   2.2817 15.25819017  5983,6866.464,94.376,490.594,486.064,0.0
56785.0,STARLINK-5931,PAYLOAD,2023-09-28 20:00:01,15.254714,0.0003265,69.9991,76.5492,278.9496,189.0782,-0.03807,-0.00887034,0.0,0 STARLINK-5931,1 56785U 23078U   23271.83334491 -.00887034  00000-0 -38070-1 0  9992,2 56785  69.9991  76.5492 0003265 278.9496 189.0782 15.25471400 19172,6867.507,94.397,491.615,487.13,0.0
56785.0,STARLINK-5931,PAYLOAD,2023-09-28 22:00:01,15.25308506,0.000324,69.999,76.3299,277.525,288.0521,-0.038115,-0.00883988,0.0,0 STARLINK-5931,1 56785U 23078U   23271.91668981 -.00883988  00000-0 -38115-1 0  9999,2 56785  69.9990  76.3299 0003240 277.5250 288.0521 15.25308506  6027,6867.996,94.407,492.086,487.636,0.0
56785.0,STARLINK-5931,PAYLOAD,2023-09-29 12:00:00,15.24197963,0.0003174,69.9996,74.7978,272.0925,254.4421,-0.041494,-0.00938626,0.0,0 STARLINK-5931,1 56785U 23078U   23272.50001157 -.00938626  00000-0 -41494-1 0  9995,2 56785  69.9996  74.7978 0003174 272.0925 254.4421 15.24197963 19273,6871.332,94.476,495.378,491.016,0.0
56785.0,STARLINK-5931,PAYLOAD,2023-09-29 14:00:01,15.24040247,0.0003281,69.9996,74.5791,271.8961,351.736,-0.04248,-0.00955125,0.0,0 STARLINK-5931,1 56785U 23078U   23272.58334491 -.00955125  00000-0 -42480-1 0  9992,2 56785  69.9996  74.5791 0003281 271.8961 351.7360 15.24040247  5966,6871.806,94.486,495.926,491.416,0.0
56785.0,STARLINK-5931,PAYLOAD,2023-09-30 06:00:00,15.2268438,0.000334,69.9997,72.8317,272.3104,46.3416,-0.040485,-0.00869347,0.0,0 STARLINK-5931,1 56785U 23078U   23273.25001157 -.00869347  00000-0 -40485-1 0  9990,2 56785  69.9997  72.8317 0003340 272.3104  46.3416 15.22684380  5906,6875.885,94.57,500.046,495.453,0.0
56785.0,STARLINK-5931,PAYLOAD,2023-09-30 20:00:01,15.21557631,0.000329,70.0001,71.3057,277.2351,356.9729,-0.042757,-0.00897362,0.0,0 STARLINK-5931,1 56785U 23078U   23273.83334491 -.00897362  00000-0 -42757-1 0  9996,2 56785  70.0001  71.3057 0003290 277.2351 356.9729 15.21557631 19484,6879.279,94.64,503.407,498.88,0.0
56785.0,STARLINK-5931,PAYLOAD,2023-10-01 12:00:00,15.20286038,0.0003388,70.0005,69.5651,271.9837,51.3424,-0.046644,-0.00939768,0.0,0 STARLINK-5931,1 56785U 23078U   23274.50001157 -.00939768  00000-0 -46644-1 0  9997,2 56785  70.0005  69.5651 0003388 271.9837  51.3424 15.20286038 19583,6883.114,94.719,507.311,502.647,0.0
56785.0,STARLINK-5931,PAYLOAD,2023-10-01 14:00:01,15.20127333,0.0003365,70.0006,69.3477,275.707,143.5444,-0.047825,-0.00957663,0.0,0 STARLINK-5931,1 56785U 23078U   23274.58334491 -.00957663  00000-0 -47825-1 0  9991,2 56785  70.0006  69.3477 0003365 275.7070 143.5444 15.20127333  5969,6883.593,94.729,507.775,503.142,0.0
56785.0,STARLINK-5931,PAYLOAD,2023-10-01 22:00:00,15.1944143,0.0003401,70.0003,68.4788,281.0531,161.408,-0.04569,-0.00901051,0.0,0 STARLINK-5931,1 56785U 23078U   23274.91667824 -.00901051  00000-0 -45690-1 0  9995,2 56785  70.0003  68.4788 0003401 281.0531 161.4080 15.19441430  6022,6885.665,94.772,509.871,505.188,0.0
56785.0,STARLINK-5931,PAYLOAD,2023-10-02 20:00:01,15.17640645,0.0003424,70.0009,66.0941,280.0477,132.1788,-0.047643,-0.00892477,0.0,0 STARLINK-5931,1 56785U 23078U   23275.83334491 -.00892477  00000-0 -47643-1 0  9999,2 56785  70.0009  66.0941 0003424 280.0477 132.1788 15.17640645 19780,6891.11,94.884,515.335,510.616,0.0
56785.0,STARLINK-5931,PAYLOAD,2023-10-02 22:00:00,15.17485279,0.0003301,70.0006,65.8777,281.0773,226.2852,-0.048456,-0.00902845,0.0,0 STARLINK-5931,1 56785U 23078U   23275.91667824 -.00902845  00000-0 -48456-1 0  9991,2 56785  70.0006  65.8777 0003301 281.0773 226.2852 15.17485279  5967,6891.581,94.894,515.721,511.171,0.0
56785.0,STARLINK-5931,PAYLOAD,2023-10-03 12:00:00,15.16374495,0.0003272,70.0012,64.3641,275.1501,176.8066,-0.052687,-0.00947322,0.0,0 STARLINK-5931,1 56785U 23078U   23276.50001157 -.00947322  00000-0 -52687-1 0  9998,2 56785  70.0012  64.3641 0003272 275.1501 176.8066 15.16374495 19887,6894.946,94.963,519.067,514.555,0.0
56785.0,STARLINK-5931,PAYLOAD,2023-10-03 14:00:01,15.16207055,0.0003179,70.0012,64.148,274.9263,271.7847,-0.053061,-0.00949311,0.0,0 STARLINK-5931,1 56785U 23078U   23276.58334491 -.00949311  00000-0 -53061-1 0  9993,2 56785  70.0012  64.1480 0003179 274.9263 271.7847 15.16207055  6070,6895.453,94.974,519.511,515.126,0.0
56785.0,STARLINK-5931,PAYLOAD,2023-10-03 22:00:00,15.1553299,0.0003217,70.0008,63.2844,279.3079,285.9148,-0.051767,-0.00911435,0.0,0 STARLINK-5931,1 56785U 23078U   23276.91667824 -.00911435  00000-0 -51767-1 0  9996,2 56785  70.0008  63.2844 0003217 279.3079 285.9148 15.15532990  6121,6897.498,95.016,521.582,517.144,0.0
56785.0,STARLINK-5931,PAYLOAD,2023-10-04 14:00:01,15.14248473,0.0003219,70.0013,61.5599,274.1145,325.7652,-0.055908,-0.00946318,0.0,0 STARLINK-5931,1 56785U 23078U   23277.58334491 -.00946318  00000-0 -55908-1 0  9990,2 56785  70.0013  61.5599 0003219 274.1145 325.7652 15.14248473  6025,6901.398,95.097,525.485,521.042,0.0
56785.0,STARLINK-5931,PAYLOAD,2023-10-04 20:00:01,15.13722478,0.000328,70.0011,60.914,280.4248,241.6585,-0.052752,-0.00884373,0.0,0 STARLINK-5931,1 56785U 23078U   23277.83334491 -.00884373  00000-0 -52752-1 0  9994,2 56785  70.0011  60.9140 0003280 280.4248 241.6585 15.13722478 20095,6902.997,95.13,527.126,522.598,0.0
56785.0,STARLINK-5931,PAYLOAD,2023-10-04 22:00:01,15.13579317,0.0003296,70.0009,60.6988,278.3726,337.7324,-0.055101,-0.00917464,0.0,0 STARLINK-5931,1 56785U 23078U   23277.91668981 -.00917464  00000-0 -55101-1 0  9996,2 56785  70.0009  60.6988 0003296 278.3726 337.7324 15.13579317  6019,6903.432,95.139,527.572,523.022,0.0
56785.0,STARLINK-5931,PAYLOAD,2023-10-05 04:00:00,15.13073966,0.0003145,70.001,60.0536,275.3799,262.2729,-0.054701,-0.00899304,0.0,0 STARLINK-5931,1 56785U 23078U   23278.16667824 -.00899304  00000-0 -54701-1 0  9996,2 56785  70.0010  60.0536 0003145 275.3799 262.2729 15.13073966 20144,6904.969,95.17,529.006,524.662,0.0
56785.0,STARLINK-5931,PAYLOAD,2023-10-05 14:00:01,15.12288764,0.0003275,70.0012,58.9795,274.042,11.965,-0.058813,-0.00942425,0.0,0 STARLINK-5931,1 56785U 23078U   23278.58334491 -.00942425  00000-0 -58813-1 0  9994,2 56785  70.0012  58.9795 0003275 274.0420  11.9650 15.12288764  6127,6907.359,95.22,531.486,526.962,0.0
56785.0,STARLINK-5931,PAYLOAD,2023-10-05 20:00:01,15.11766869,0.0003226,70.0011,58.3355,279.5816,286.8681,-0.055829,-0.008859,0.0,0 STARLINK-5931,1 56785U 23078U   23278.83334491 -.00885900  00000-0 -55829-1 0  9990,2 56785  70.0011  58.3355 0003226 279.5816 286.8681 15.11766869 20249,6908.949,95.253,533.042,528.585,0.0
56785.0,STARLINK-5931,PAYLOAD,2023-10-05 22:00:00,15.11626899,0.0003333,70.0008,58.121,278.504,21.317,-0.05876,-0.00925663,0.0,0 STARLINK-5931,1 56785U 23078U   23278.91667824 -.00925663  00000-0 -58760-1 0  9996,2 56785  70.0008  58.1210 0003333 278.5040  21.3170 15.11626899  5998,6909.375,95.262,533.543,528.937,0.0
56785.0,STARLINK-5931,PAYLOAD,2023-10-06 04:00:00,15.1111374,0.0003138,70.001,57.4777,274.4146,305.2591,-0.057346,-0.0089302,0.0,0 STARLINK-5931,1 56785U 23078U   23279.16667824 -.00893020  00000-0 -57346-1 0  9994,2 56785  70.0010  57.4777 0003138 274.4146 305.2591 15.11113740 20293,6910.939,95.294,534.973,530.636,0.0
56785.0,STARLINK-5931,PAYLOAD,2023-10-06 14:00:01,15.10329894,0.0003317,70.0012,56.4069,275.0329,50.1242,-0.061926,-0.00939873,0.0,0 STARLINK-5931,1 56785U 23078U   23279.58335648 -.00939873  00000-0 -61926-1 0  9992,2 56785  70.0012  56.4069 0003317 275.0329  50.1242 15.10329894  6108,6913.33,95.343,537.488,532.902,0.0
56785.0,STARLINK-5931,PAYLOAD,2023-10-06 20:00:01,15.09813094,0.0003255,70.001,55.7649,278.8804,324.8948,-0.059206,-0.00889642,0.0,0 STARLINK-5931,1 56785U 23078U   23279.83334491 -.00889642  00000-0 -59206-1 0  9991,2 56785  70.0010  55.7649 0003255 278.8804 324.8948 15.09813094 20391,6914.908,95.376,539.023,534.522,0.0
56785.0,STARLINK-5931,PAYLOAD,2023-10-06 22:00:01,15.09673783,0.0003366,70.0008,55.551,279.2009,57.422,-0.062474,-0.00931805,0.0,0 STARLINK-5931,1 56785U 23078U   23279.91668981 -.00931805  00000-0 -62474-1 0  9994,2 56785  70.0008  55.5510 0003366 279.2009  57.4220 15.09673783  5897,6915.333,95.385,539.526,534.87,0.0
56785.0,STARLINK-5931,PAYLOAD,2023-10-07 04:00:00,15.09153428,0.0003167,70.001,54.9096,273.8387,340.8158,-0.06005,-0.00886311,0.0,0 STARLINK-5931,1 56785U 23078U   23280.16667824 -.00886311  00000-0 -60050-1 0  9997,2 56785  70.0010  54.9096 0003167 273.8387 340.8158 15.09153428 20446,6916.923,95.418,540.978,536.597,0.0
56785.0,STARLINK-5931,PAYLOAD,2023-10-07 14:00:01,15.08370921,0.0003336,70.0011,53.842,276.2005,80.9415,-0.065125,-0.00936766,0.0,0 STARLINK-5931,1 56785U 23078U   23280.58334491 -.00936766  00000-0 -65125-1 0  9992,2 56785  70.0011  53.8420 0003336 276.2005  80.9415 15.08370921  5997,6919.315,95.467,543.488,538.871,0.0
56785.0,STARLINK-5931,PAYLOAD,2023-10-07 20:00:01,15.0785916,0.0003301,70.0009,53.202,279.0396,355.0193,-0.062817,-0.00894253,0.0,0 STARLINK-5931,1 56785U 23078U   23280.83334491 -.00894253  00000-0 -62817-1 0  9999,2 56785  70.0009  53.2020 0003301 279.0396 355.0193 15.07859160 20543,6920.88,95.5,545.03,540.46,0.0
56785.0,STARLINK-5931,PAYLOAD,2023-10-07 22:00:00,15.07719608,0.0003371,70.0008,52.9888,280.3505,85.9069,-0.066327,-0.00937184,0.0,0 STARLINK-5931,1 56785U 23078U   23280.91667824 -.00937184  00000-0 -66327-1 0  9998,2 56785  70.0008  52.9888 0003371 280.3505  85.9069 15.07719608  6002,6921.307,95.508,545.505,540.839,0.0
